start=new Date('2022-09-26T00:00:00.000Z').valueOf();
sats=[{"RCS_SIZE":"LARGE","INCLINATION":"53.0540","MEAN_MOTION_DOT":"-0.00000027","TIME_SYSTEM":"UTC","PERIOD":"95.593","CENTER_NAME":"EARTH","SITE":"AFETR","OBJECT_ID":"2021-018BG","LAUNCH_DATE":"2021-03-11","ARG_OF_PERICENTER":"91.6220","FILE":"3583608","NORAD_CAT_ID":"47841","PERIAPSIS":"546.378","REF_FRAME":"TEME","EPHEMERIS_TYPE":"0","RA_OF_ASC_NODE":"131.6118","CLASSIFICATION_TYPE":"U","APOAPSIS":"548.121","TLE_LINE1":"1 47841U 21018BG  22268.88288380 -.00000027  00000-0  17064-4 0  9993","SEMIMAJOR_AXIS":"6925.384","BSTAR":"0.00001706400000","DECAY_DATE":null,"COUNTRY_CODE":"US","ELEMENT_SET_NO":"999","MEAN_MOTION":"15.06388276","ECCENTRICITY":"0.00012590","EPOCH":"2022-09-25T21:11:21.160320","MEAN_ELEMENT_THEORY":"SGP4","OBJECT_NAME":"STARLINK-2433","REV_AT_EPOCH":"8650","MEAN_ANOMALY":"268.4913","OBJECT_TYPE":"PAYLOAD","TLE_LINE2":"2 47841  53.0540 131.6118 0001259  91.6220 268.4913 15.06388276 86509","GP_ID":"213478829","MEAN_MOTION_DDOT":"0.0000000000000"},{"PERIOD":"95.593","CENTER_NAME":"EARTH","SITE":"AFETR","RCS_SIZE":"LARGE","INCLINATION":"53.0543","MEAN_MOTION_DOT":"-0.00003992","TIME_SYSTEM":"UTC","REF_FRAME":"TEME","PERIAPSIS":"546.295","EPHEMERIS_TYPE":"0","OBJECT_ID":"2021-018BH","LAUNCH_DATE":"2021-03-11","ARG_OF_PERICENTER":"95.5044","FILE":"3583828","NORAD_CAT_ID":"47842","ELEMENT_SET_NO":"999","MEAN_MOTION":"15.06384001","ECCENTRICITY":"0.00013970","EPOCH":"2022-09-25T20:51:26.282880","MEAN_ELEMENT_THEORY":"SGP4","RA_OF_ASC_NODE":"161.6675","CLASSIFICATION_TYPE":"U","APOAPSIS":"548.230","BSTAR":"-0.00024939000000","TLE_LINE1":"1 47842U 21018BH  22268.86905420 -.00003992  00000-0 -24939-3 0  9996","SEMIMAJOR_AXIS":"6925.398","COUNTRY_CODE":"US","DECAY_DATE":null,"TLE_LINE2":"2 47842  53.0543 161.6675 0001397  95.5044 264.6104 15.06384001 86472","GP_ID":"213506694","MEAN_MOTION_DDOT":"0.0000000000000","REV_AT_EPOCH":"8647","OBJECT_NAME":"STARLINK-2434","MEAN_ANOMALY":"264.6104","OBJECT_TYPE":"PAYLOAD"},{"TLE_LINE1":"1 47843U 21018BJ  22267.97935661  .00004284  00000-0  30628-3 0  9993","BSTAR":"0.00030628000000","SEMIMAJOR_AXIS":"6925.331","APOAPSIS":"548.255","COUNTRY_CODE":"US","DECAY_DATE":null,"RA_OF_ASC_NODE":"160.6689","CLASSIFICATION_TYPE":"U","MEAN_ELEMENT_THEORY":"SGP4","ELEMENT_SET_NO":"999","EPOCH":"2022-09-24T23:30:16.411104","ECCENTRICITY":"0.00015280","MEAN_MOTION":"15.06405625","OBJECT_TYPE":"PAYLOAD","MEAN_ANOMALY":"271.0800","REV_AT_EPOCH":"8637","OBJECT_NAME":"STARLINK-2435","GP_ID":"213443645","TLE_LINE2":"2 47843  53.0541 160.6689 0001528  89.0364 271.0800 15.06405625 86374","MEAN_MOTION_DDOT":"0.0000000000000","INCLINATION":"53.0541","MEAN_MOTION_DOT":"0.00004284","TIME_SYSTEM":"UTC","RCS_SIZE":"LARGE","CENTER_NAME":"EARTH","SITE":"AFETR","PERIOD":"95.592","FILE":"3583351","NORAD_CAT_ID":"47843","ARG_OF_PERICENTER":"89.0364","OBJECT_ID":"2021-018BJ","LAUNCH_DATE":"2021-03-11","EPHEMERIS_TYPE":"0","REF_FRAME":"TEME","PERIAPSIS":"546.138"},{"PERIAPSIS":"546.156","REF_FRAME":"TEME","EPHEMERIS_TYPE":"0","ARG_OF_PERICENTER":"92.0636","LAUNCH_DATE":"2021-03-11","OBJECT_ID":"2021-018BK","NORAD_CAT_ID":"47844","FILE":"3583608","PERIOD":"95.592","SITE":"AFETR","CENTER_NAME":"EARTH","RCS_SIZE":"LARGE","TIME_SYSTEM":"UTC","INCLINATION":"53.0562","MEAN_MOTION_DOT":"0.00001408","MEAN_MOTION_DDOT":"0.0000000000000","GP_ID":"213478828","TLE_LINE2":"2 47844  53.0562 153.8821 0001541  92.0636 268.0530 15.06396970 86155","REV_AT_EPOCH":"8615","OBJECT_NAME":"STARLINK-2446","OBJECT_TYPE":"PAYLOAD","MEAN_ANOMALY":"268.0530","EPOCH":"2022-09-25T09:01:31.031904","ECCENTRICITY":"0.00015410","MEAN_MOTION":"15.06396970","ELEMENT_SET_NO":"999","MEAN_ELEMENT_THEORY":"SGP4","CLASSIFICATION_TYPE":"U","RA_OF_ASC_NODE":"153.8821","COUNTRY_CODE":"US","DECAY_DATE":null,"TLE_LINE1":"1 47844U 21018BK  22268.37605361  .00001408  00000-0  11338-3 0  9992","SEMIMAJOR_AXIS":"6925.358","BSTAR":"0.00011338000000","APOAPSIS":"548.290"},{"FILE":"3583351","NORAD_CAT_ID":"47845","ARG_OF_PERICENTER":"88.0589","LAUNCH_DATE":"2021-03-11","OBJECT_ID":"2021-018BL","EPHEMERIS_TYPE":"0","REF_FRAME":"TEME","PERIAPSIS":"546.186","TIME_SYSTEM":"UTC","INCLINATION":"53.0537","MEAN_MOTION_DOT":"0.00003390","RCS_SIZE":"LARGE","SITE":"AFETR","CENTER_NAME":"EARTH","PERIOD":"95.592","OBJECT_TYPE":"PAYLOAD","MEAN_ANOMALY":"272.0570","OBJECT_NAME":"STARLINK-2453","REV_AT_EPOCH":"8649","MEAN_MOTION_DDOT":"0.0000000000000","GP_ID":"213444646","TLE_LINE2":"2 47845  53.0537 153.7956 0001483  88.0589 272.0570 15.06400285 86494","COUNTRY_CODE":"US","DECAY_DATE":null,"TLE_LINE1":"1 47845U 21018BL  22268.39448882  .00003390  00000-0  24638-3 0  9997","SEMIMAJOR_AXIS":"6925.348","BSTAR":"0.00024638000000","APOAPSIS":"548.240","CLASSIFICATION_TYPE":"U","RA_OF_ASC_NODE":"153.7956","MEAN_ELEMENT_THEORY":"SGP4","ECCENTRICITY":"0.00014830","EPOCH":"2022-09-25T09:28:03.834048","MEAN_MOTION":"15.06400285","ELEMENT_SET_NO":"999"},{"DECAY_DATE":null,"COUNTRY_CODE":"US","SEMIMAJOR_AXIS":"6925.331","TLE_LINE1":"1 47846U 21018BM  22268.38985216  .00002046  00000-0  15618-3 0  9999","BSTAR":"0.00015618000000","APOAPSIS":"548.135","CLASSIFICATION_TYPE":"U","RA_OF_ASC_NODE":"153.8178","MEAN_ELEMENT_THEORY":"SGP4","EPOCH":"2022-09-25T09:21:23.226624","ECCENTRICITY":"0.00013550","MEAN_MOTION":"15.06405667","ELEMENT_SET_NO":"999","OBJECT_TYPE":"PAYLOAD","MEAN_ANOMALY":"270.8699","REV_AT_EPOCH":"8654","OBJECT_NAME":"STARLINK-2456","MEAN_MOTION_DDOT":"0.0000000000000","GP_ID":"213443896","TLE_LINE2":"2 47846  53.0552 153.8178 0001355  89.2445 270.8699 15.06405667 86544","TIME_SYSTEM":"UTC","MEAN_MOTION_DOT":"0.00002046","INCLINATION":"53.0552","RCS_SIZE":"LARGE","SITE":"AFETR","CENTER_NAME":"EARTH","PERIOD":"95.592","FILE":"3583351","NORAD_CAT_ID":"47846","ARG_OF_PERICENTER":"89.2445","OBJECT_ID":"2021-018BM","LAUNCH_DATE":"2021-03-11","EPHEMERIS_TYPE":"0","PERIAPSIS":"546.258","REF_FRAME":"TEME"},{"LAUNCH_DATE":"2021-03-14","OBJECT_ID":"2021-021A","ARG_OF_PERICENTER":"100.3734","NORAD_CAT_ID":"47860","FILE":"3583351","REF_FRAME":"TEME","PERIAPSIS":"546.181","EPHEMERIS_TYPE":"0","RCS_SIZE":"LARGE","TIME_SYSTEM":"UTC","MEAN_MOTION_DOT":"0.00002738","INCLINATION":"53.0538","PERIOD":"95.592","SITE":"AFETR","CENTER_NAME":"EARTH","OBJECT_NAME":"STARLINK-2258","REV_AT_EPOCH":"8579","MEAN_ANOMALY":"259.7421","OBJECT_TYPE":"PAYLOAD","MEAN_MOTION_DDOT":"0.0000000000000","TLE_LINE2":"2 47860  53.0538 185.2701 0001469 100.3734 259.7421 15.06404921 85794","GP_ID":"213444898","CLASSIFICATION_TYPE":"U","RA_OF_ASC_NODE":"185.2701","COUNTRY_CODE":"US","DECAY_DATE":null,"APOAPSIS":"548.216","SEMIMAJOR_AXIS":"6925.333","TLE_LINE1":"1 47860U 21021A   22268.06366805  .00002738  00000-0  20263-3 0  9991","BSTAR":"0.00020263000000","MEAN_MOTION":"15.06404921","ECCENTRICITY":"0.00014690","EPOCH":"2022-09-25T01:31:40.919520","ELEMENT_SET_NO":"999","MEAN_ELEMENT_THEORY":"SGP4"},{"CLASSIFICATION_TYPE":"U","RA_OF_ASC_NODE":"169.8898","DECAY_DATE":null,"COUNTRY_CODE":"US","APOAPSIS":"548.214","TLE_LINE1":"1 47861U 21021B   22268.14800720 -.00000189  00000-0  62179-5 0  9993","SEMIMAJOR_AXIS":"6925.401","BSTAR":"0.00000621790000","MEAN_MOTION":"15.06383022","ECCENTRICITY":"0.00013700","EPOCH":"2022-09-25T03:33:07.822080","ELEMENT_SET_NO":"999","MEAN_ELEMENT_THEORY":"SGP4","OBJECT_NAME":"STARLINK-2280","REV_AT_EPOCH":"8612","MEAN_ANOMALY":"283.4694","OBJECT_TYPE":"PAYLOAD","MEAN_MOTION_DDOT":"0.0000000000000","GP_ID":"213445148","TLE_LINE2":"2 47861  53.0539 169.8898 0001370  76.6448 283.4694 15.06383022 86121","RCS_SIZE":"LARGE","TIME_SYSTEM":"UTC","MEAN_MOTION_DOT":"-0.00000189","INCLINATION":"53.0539","PERIOD":"95.593","SITE":"AFETR","CENTER_NAME":"EARTH","LAUNCH_DATE":"2021-03-14","OBJECT_ID":"2021-021B","ARG_OF_PERICENTER":"76.6448","FILE":"3583351","NORAD_CAT_ID":"47861","REF_FRAME":"TEME","PERIAPSIS":"546.317","EPHEMERIS_TYPE":"0"},{"REV_AT_EPOCH":"8629","OBJECT_NAME":"STARLINK-2291","OBJECT_TYPE":"PAYLOAD","MEAN_ANOMALY":"279.1733","MEAN_MOTION_DDOT":"0.0000000000000","GP_ID":"213506696","TLE_LINE2":"2 47862  53.0541 161.7272 0001448  80.9420 279.1733 15.06397220 86295","CLASSIFICATION_TYPE":"U","RA_OF_ASC_NODE":"161.7272","COUNTRY_CODE":"US","DECAY_DATE":null,"SEMIMAJOR_AXIS":"6925.357","TLE_LINE1":"1 47862U 21021C   22268.85799146  .00000457  00000-0  49601-4 0  9992","BSTAR":"0.00004960100000","APOAPSIS":"548.225","EPOCH":"2022-09-25T20:35:30.462144","ECCENTRICITY":"0.00014480","MEAN_MOTION":"15.06397220","ELEMENT_SET_NO":"999","MEAN_ELEMENT_THEORY":"SGP4","ARG_OF_PERICENTER":"80.9420","OBJECT_ID":"2021-021C","LAUNCH_DATE":"2021-03-14","NORAD_CAT_ID":"47862","FILE":"3583828","REF_FRAME":"TEME","PERIAPSIS":"546.219","EPHEMERIS_TYPE":"0","RCS_SIZE":"LARGE","TIME_SYSTEM":"UTC","MEAN_MOTION_DOT":"0.00000457","INCLINATION":"53.0541","PERIOD":"95.592","SITE":"AFETR","CENTER_NAME":"EARTH"},{"RCS_SIZE":"LARGE","INCLINATION":"53.0527","MEAN_MOTION_DOT":"0.00000107","TIME_SYSTEM":"UTC","PERIOD":"95.592","CENTER_NAME":"EARTH","SITE":"AFETR","ARG_OF_PERICENTER":"93.5364","LAUNCH_DATE":"2021-03-14","OBJECT_ID":"2021-021D","NORAD_CAT_ID":"47863","FILE":"3583695","PERIAPSIS":"546.143","REF_FRAME":"TEME","EPHEMERIS_TYPE":"0","RA_OF_ASC_NODE":"171.9090","CLASSIFICATION_TYPE":"U","TLE_LINE1":"1 47863U 21021D   22268.81653080  .00000107  00000-0  26095-4 0  9999","SEMIMAJOR_AXIS":"6925.364","BSTAR":"0.00002609500000","APOAPSIS":"548.316","COUNTRY_CODE":"US","DECAY_DATE":null,"ELEMENT_SET_NO":"999","EPOCH":"2022-09-25T19:35:48.261120","ECCENTRICITY":"0.00015690","MEAN_MOTION":"15.06394932","MEAN_ELEMENT_THEORY":"SGP4","OBJECT_NAME":"STARLINK-2293","REV_AT_EPOCH":"8566","OBJECT_TYPE":"PAYLOAD","MEAN_ANOMALY":"266.5804","GP_ID":"213481236","TLE_LINE2":"2 47863  53.0527 171.9090 0001569  93.5364 266.5804 15.06394932 85668","MEAN_MOTION_DDOT":"0.0000000000000"}];
